SHIYAN-1 (SY-1)         
1 28220U 04012A   26197.86091325  .00008072  00000+0  24427-3 0  9998
2 28220  97.8686 277.8723 0004109 266.9613  93.1158 15.34479585215649
SINAH 1                 
1 28893U 05043D   26197.84990317  .00000126  00000+0  33283-4 0  9999
2 28893  98.2896 332.3524 0014513 178.3565 181.7688 14.64176066104864
SKYSAT-A                
1 39418U 13066C   26197.62065926  .00001494  00000+0  87583-4 0  9994
2 39418  97.3802 246.0799 0020608 208.2257 151.7859 15.13119725692935
SKYSAT-B                
1 40072U 14037D   26197.44272534  .00000596  00000+0  71529-4 0  9991
2 40072  98.3854 158.0796 0005674 168.9313 191.2027 14.88093555650316
SKYSAT-C1               
1 41601U 16040C   26197.65226043  .00005107  00000+0  14428-3 0  9990
2 41601  96.9547 227.7813 0000246 251.8457 108.2762 15.36763049562393
SENTINEL-5P             
1 42969U 17064A   26197.45352247  .00000010  00000+0  25784-4 0  9995
2 42969  98.7929 139.3777 0001152  93.3196 266.8111 14.19523387453711
SKYSAT-C10              
1 42988U 17068B   26197.62935921  .00006069  00000+0  18042-3 0  9993
2 42988  97.4544 334.7788 0001491 111.2984 248.8418 15.35133944486873
SENTINEL-3B             
1 43437U 18039A   26197.78450514  .00000048  00000+0  37772-4 0  9992
2 43437  98.6236 264.8900 0001186 119.7266 240.4033 14.26736639428348
SENTINEL-6A             
1 46984U 20086A   26197.67626227 -.00000039  00000+0  96185-4 0  9995
2 46984  66.0412  73.8043 0007781 269.6984  90.3140 12.80930202264101
SENTINEL-6B             
1 66514U 25264A   26197.67661028 -.00000041  00000+0  87365-4 0  9990
2 66514  66.0412  73.9297 0007842 268.5768  91.4349 12.80930175 30945
